CCSDS_OMM_VERS,COMMENT,CREATION_DATE,ORIGINATOR,OBJECT_NAME,OBJECT_ID,CENTER_NAME,REF_FRAME,TIME_SYSTEM,MEAN_ELEMENT_THEORY,EPOCH,MEAN_MOTION,ECCENTRICITY,INCLINATION,RA_OF_ASC_NODE,ARG_OF_PERICENTER,MEAN_ANOMALY,EPHEMERIS_TYPE,CLASSIFICATION_TYPE,NORAD_CAT_ID,ELEMENT_SET_NO,REV_AT_EPOCH,BSTAR,MEAN_MOTION_DOT,MEAN_MOTION_DDOT,SEMIMAJOR_AXIS,PERIOD,APOAPSIS,PERIAPSIS,OBJECT_TYPE,RCS_SIZE,COUNTRY_CODE,LAUNCH_DATE,SITE,DECAY_DATE,FILE,GP_ID,TLE_LINE0,TLE_LINE1,TLE_LINE2
2.0,GENERATED VIA SPACE-TRACK.ORG API,2022-08-20T08:36:13,18 SPCS,STARLINK-1290,2020-019AJ,EARTH,TEME,UTC,SGP4,2022-08-20T04:01:20.324640,15.15657704,2.62e-05,52.9931,196.3698,83.8811,276.2211,0,U,45392,999,13432,0.00076644,0.00014475,0.0,6897.12,95.008,519.165,518.804,PAYLOAD,LARGE,US,2020-03-18,AFETR,,3540949,210555296,0 STARLINK-1290,1 45392U 20019AJ  22232.16759635  .00014475  00000-0  76644-3 0  9999,2 45392  52.9931 196.3698 0000262  83.8811 276.2211 15.15657704134320
2.0,GENERATED VIA SPACE-TRACK.ORG API,2022-08-20T06:56:12,18 SPCS,STARLINK-3232,2022-001G,EARTH,TEME,UTC,SGP4,2022-08-20T04:00:59.611968,15.08840369,0.0002156,53.2164,223.9264,55.9456,304.174,0,U,50809,999,3594,5.818e-05,6.38e-06,0.0,6917.879,95.438,541.236,538.253,PAYLOAD,LARGE,US,2022-01-06,AFETR,,3540809,210552002,0 STARLINK-3232,1 50809U 22001G   22232.16735662  .00000638  00000-0  58180-4 0  9997,2 50809  53.2164 223.9264 0002156  55.9456 304.1740 15.08840369 35945
2.0,GENERATED VIA SPACE-TRACK.ORG API,2022-08-20T06:56:12,18 SPCS,STARLINK-2667,2021-044AB,EARTH,TEME,UTC,SGP4,2022-08-20T04:00:49.011552,15.06388132,0.000153,53.053,176.4305,77.2675,282.8485,0,U,48663,999,6912,-0.00010471,-1.84e-05,0.0,6925.385,95.593,548.31,546.19,PAYLOAD,LARGE,US,2021-05-26,AFETR,,3540774,210551726,0 STARLINK-2667,1 48663U 21044AB  22232.16723393 -.00001840  00000-0 -10471-3 0  9994,2 48663  53.0530 176.4305 0001530  77.2675 282.8485 15.06388132 69126
2.0,GENERATED VIA SPACE-TRACK.ORG API,2022-08-20T08:56:12,18 SPCS,CZ-6 R/B,2021-064F,EARTH,TEME,UTC,SGP4,2022-08-20T04:00:23.541696,14.38841107,0.0175821,45.0012,320.1043,246.6916,111.5344,0,U,49023,999,5857,5.9943e-05,6.3e-07,0.0,7140.467,100.081,887.876,636.788,ROCKET BODY,LARGE,PRC,2021-07-09,TSC,,3540977,210555931,0 CZ-6 R/B,1 49023U 21064F   22232.16693914  .00000063  00000-0  59943-4 0  9994,2 49023  45.0012 320.1043 0175821 246.6916 111.5344 14.38841107 58574
2.0,GENERATED VIA SPACE-TRACK.ORG API,2022-08-20T07:56:12,18 SPCS,CZ-4B R/B,2007-042B,EARTH,TEME,UTC,SGP4,2022-08-20T04:00:20.767392,14.50382652,0.0056997,98.0214,202.7638,107.9126,263.979,0,U,32063,999,78946,4.5023e-05,1.36e-06,0.0,7102.536,99.284,764.883,683.919,ROCKET BODY,LARGE,PRC,2007-09-19,TSC,,3540898,210554417,0 CZ-4B R/B,1 32063U 07042B   22232.16690703  .00000136  00000-0  45023-4 0  9998,2 32063  98.0214 202.7638 0056997 107.9126 263.9790 14.50382652789466
2.0,GENERATED VIA SPACE-TRACK.ORG API,2022-08-20T06:56:12,18 SPCS,TITAN 4B R/B,2005-016B,EARTH,TEME,UTC,SGP4,2022-08-20T04:00:15.133248,15.08127217,0.0123631,56.9946,249.359,135.3524,225.7552,0,U,28647,999,17958,9.3676e-05,1.413e-05,0.0,6920.06,95.483,627.478,456.372,ROCKET BODY,LARGE,US,2005-04-30,AFETR,,3540778,210551788,0 TITAN 4B R/B,1 28647U 05016B   22232.16684182  .00001413  00000-0  93676-4 0  9990,2 28647  56.9946 249.3590 0123631 135.3524 225.7552 15.08127217179581
2.0,GENERATED VIA SPACE-TRACK.ORG API,2022-08-20T07:16:13,18 SPCS,STARLINK-1906,2020-074AC,EARTH,TEME,UTC,SGP4,2022-08-20T04:00:09.124992,15.06397924,0.0001201,53.0548,41.4184,89.3034,270.8092,0,U,46765,999,10062,5.7219e-05,5.71e-06,0.0,6925.355,95.592,548.052,546.388,PAYLOAD,LARGE,US,2020-10-24,AFETR,,3540844,210553253,0 STARLINK-1906,1 46765U 20074AC  22232.16677228  .00000571  00000-0  57219-4 0  9992,2 46765  53.0548  41.4184 0001201  89.3034 270.8092 15.06397924100621
2.0,GENERATED VIA SPACE-TRACK.ORG API,2022-08-20T06:56:12,18 SPCS,STARLINK-4018,2022-053AT,EARTH,TEME,UTC,SGP4,2022-08-20T04:00:00.999936,15.08827806,0.0001942,53.2163,213.9121,45.0348,101.2407,0,U,52697,999,1480,-0.0015549,-0.00024941,0.0,6917.918,95.438,541.126,538.439,PAYLOAD,LARGE,US,2022-05-18,AFETR,,3540793,210552497,0 STARLINK-4018,1 52697U 22053AT  22232.16667824 -.00024941  00000-0 -15549-2 0  9990,2 52697  53.2163 213.9121 0001942  45.0348 101.2407 15.08827806 14803
2.0,GENERATED VIA SPACE-TRACK.ORG API,2022-08-20T06:56:12,18 SPCS,STARLINK-4041,2022-053AR,EARTH,TEME,UTC,SGP4,2022-08-20T04:00:00.999936,15.08837006,0.0002345,53.2166,213.9146,54.9862,131.2566,0,U,52695,999,1480,-0.0014482,-0.00023262,0.0,6917.89,95.438,541.377,538.132,PAYLOAD,LARGE,US,2022-05-18,AFETR,,3540793,210552021,0 STARLINK-4041,1 52695U 22053AR  22232.16667824 -.00023262  00000-0 -14482-2 0  9998,2 52695  53.2166 213.9146 0002345  54.9862 131.2566 15.08837006 14801
2.0,GENERATED VIA SPACE-TRACK.ORG API,2022-08-20T06:56:12,18 SPCS,STARLINK-3945,2022-053AM,EARTH,TEME,UTC,SGP4,2022-08-20T04:00:00.999936,15.0885861,0.0002113,53.216,208.912,48.7316,130.224,0,U,52691,999,1487,-0.0032866,-0.00052244,0.0,6917.824,95.436,541.15,538.227,PAYLOAD,LARGE,US,2022-05-18,AFETR,,3540793,210552022,0 STARLINK-3945,1 52691U 22053AM  22232.16667824 -.00052244  00000-0 -32866-2 0  9992,2 52691  53.2160 208.9120 0002113  48.7316 130.2240 15.08858610 14874
2.0,GENERATED VIA SPACE-TRACK.ORG API,2022-08-20T06:56:12,18 SPCS,STARLINK-4035,2022-053AL,EARTH,TEME,UTC,SGP4,2022-08-20T04:00:00.999936,15.08854542,0.0002478,53.2168,208.9134,49.341,9.6374,0,U,52690,999,1486,-0.0023425,-0.00037393,0.0,6917.836,95.437,541.415,537.987,PAYLOAD,LARGE,US,2022-05-18,AFETR,,3540792,210552485,0 STARLINK-4035,1 52690U 22053AL  22232.16667824 -.00037393  00000-0 -23425-2 0  9990,2 52690  53.2168 208.9134 0002478  49.3410   9.6374 15.08854542 14868
2.0,GENERATED VIA SPACE-TRACK.ORG API,2022-08-20T06:56:12,18 SPCS,STARLINK-3981,2022-053AH,EARTH,TEME,UTC,SGP4,2022-08-20T04:00:00.999936,15.08850656,0.0002353,53.2168,208.9114,44.9637,53.9636,0,U,52687,999,1487,-0.0013903,-0.00022354,0.0,6917.848,95.437,541.341,538.085,PAYLOAD,LARGE,US,2022-05-18,AFETR,,3540792,210552491,0 STARLINK-3981,1 52687U 22053AH  22232.16667824 -.00022354  00000-0 -13903-2 0  9997,2 52687  53.2168 208.9114 0002353  44.9637  53.9636 15.08850656 14872
2.0,GENERATED VIA SPACE-TRACK.ORG API,2022-08-20T06:56:12,18 SPCS,STARLINK-4005,2022-053AG,EARTH,TEME,UTC,SGP4,2022-08-20T04:00:00.999936,15.08829211,0.0002295,53.2153,208.9237,47.3984,331.607,0,U,52686,999,1486,-0.0014238,-0.00022871,0.0,6917.913,95.438,541.366,538.191,PAYLOAD,LARGE,US,2022-05-18,AFETR,,3540809,210552478,0 STARLINK-4005,1 52686U 22053AG  22232.16667824 -.00022871  00000-0 -14238-2 0  9992,2 52686  53.2153 208.9237 0002295  47.3984 331.6070 15.08829211 14868
2.0,GENERATED VIA SPACE-TRACK.ORG API,2022-08-20T06:56:12,18 SPCS,STARLINK-4017,2022-053AC,EARTH,TEME,UTC,SGP4,2022-08-20T04:00:00.999936,15.08830206,0.000219,53.2137,208.9239,40.9251,258.0198,0,U,52682,999,1486,-0.0012372,-0.0001992,0.0,6917.91,95.438,541.29,538.26,PAYLOAD,LARGE,US,2022-05-18,AFETR,,3540791,210551991,0 STARLINK-4017,1 52682U 22053AC  22232.16667824 -.00019920  00000-0 -12372-2 0  9996,2 52682  53.2137 208.9239 0002190  40.9251 258.0198 15.08830206 14867
2.0,GENERATED VIA SPACE-TRACK.ORG API,2022-08-20T06:56:12,18 SPCS,STARLINK-3774,2022-053AA,EARTH,TEME,UTC,SGP4,2022-08-20T04:00:00.999936,15.08835478,0.0002031,53.2133,208.9291,55.0067,203.9626,0,U,52680,999,1486,-0.0011609,-0.00018715,0.0,6917.894,95.438,541.164,538.354,PAYLOAD,LARGE,US,2022-05-18,AFETR,,3540791,210551987,0 STARLINK-3774,1 52680U 22053AA  22232.16667824 -.00018715  00000-0 -11609-2 0  9997,2 52680  53.2133 208.9291 0002031  55.0067 203.9626 15.08835478 14866
2.0,GENERATED VIA SPACE-TRACK.ORG API,2022-08-20T06:56:12,18 SPCS,STARLINK-4031,2022-053Z,EARTH,TEME,UTC,SGP4,2022-08-20T04:00:00.999936,15.08838778,0.0002393,53.2154,208.9241,50.0909,288.8634,0,U,52679,999,1486,-0.0013665,-0.00021971,0.0,6917.884,95.438,541.405,538.094,PAYLOAD,LARGE,US,2022-05-18,AFETR,,3540791,210551980,0 STARLINK-4031,1 52679U 22053Z   22232.16667824 -.00021971  00000-0 -13665-2 0  9997,2 52679  53.2154 208.9241 0002393  50.0909 288.8634 15.08838778 14860
2.0,GENERATED VIA SPACE-TRACK.ORG API,2022-08-20T06:56:12,18 SPCS,STARLINK-4074,2022-053Y,EARTH,TEME,UTC,SGP4,2022-08-20T04:00:00.999936,15.08822571,0.0002146,53.2124,208.9281,39.2887,194.4429,0,U,52678,999,1486,-0.0011495,-0.00018528,0.0,6917.934,95.439,541.283,538.314,PAYLOAD,LARGE,US,2022-05-18,AFETR,,3540790,210551977,0 STARLINK-4074,1 52678U 22053Y   22232.16667824 -.00018528  00000-0 -11495-2 0  9999,2 52678  53.2124 208.9281 0002146  39.2887 194.4429 15.08822571 14868
2.0,GENERATED VIA SPACE-TRACK.ORG API,2022-08-20T06:56:12,18 SPCS,STARLINK-4028,2022-053X,EARTH,TEME,UTC,SGP4,2022-08-20T04:00:00.999936,15.0884165,0.0002101,53.214,208.9269,51.8803,227.1058,0,U,52677,999,1486,-0.0011271,-0.00018183,0.0,6917.875,95.437,541.194,538.287,PAYLOAD,LARGE,US,2022-05-18,AFETR,,3540790,210551971,0 STARLINK-4028,1 52677U 22053X   22232.16667824 -.00018183  00000-0 -11271-2 0  9997,2 52677  53.2140 208.9269 0002101  51.8803 227.1058 15.08841650 14861
2.0,GENERATED VIA SPACE-TRACK.ORG API,2022-08-20T06:56:12,18 SPCS,STARLINK-3936,2022-053U,EARTH,TEME,UTC,SGP4,2022-08-20T04:00:00.999936,15.08840142,0.0002337,53.2197,218.9291,43.4407,100.5259,0,U,52674,999,1473,-0.0017456,-0.00027963,0.0,6917.88,95.438,541.362,538.128,PAYLOAD,LARGE,US,2022-05-18,AFETR,,3540789,210551956,0 STARLINK-3936,1 52674U 22053U   22232.16667824 -.00027963  00000-0 -17456-2 0  9991,2 52674  53.2197 218.9291 0002337  43.4407 100.5259 15.08840142 14732
